APRIZESAT 2             
1 28366U 04025A   26159.16973255  .00000168  00000+0  65666-4 0  9994
2 28366  98.1008 325.6611 0104277 277.3959  81.5390 14.38032458150347
SAUDICOMSAT 1           
1 28369U 04025D   26158.94173333  .00000461  00000+0  11653-3 0  9993
2 28369  98.5772 168.8237 0033156  53.2539 307.1694 14.55466638162780
SAUDICOMSAT 2           
1 28370U 04025E   26159.01624961  .00000312  00000+0  91871-4 0  9998
2 28370  98.6642 171.0027 0054171 287.8698  71.6592 14.49976180158778
APRIZESAT 1             
1 28372U 04025G   26158.99028031  .00000231  00000+0  68997-4 0  9995
2 28372  98.6304 169.4655 0044530 181.5922 178.5138 14.51772610160570
NANOSAT-1               
1 28493U 04049B   26159.17810049  .00001090  00000+0  15086-3 0  9998
2 28493  98.2265 295.6195 0003315 339.8990  20.2090 14.80141998154110
SAUDICOMSAT 7           
1 31119U 07012C   26159.17218095  .00000518  00000+0  10190-3 0  9998
2 31119  98.3774 133.1196 0054731 223.7930 135.8926 14.66101764 21110
SAUDICOMSAT 6           
1 31121U 07012E   26159.12811238  .00000765  00000+0  15553-3 0  9996
2 31121  98.4094 126.4764 0071724 356.1140   3.9495 14.62547488 18867
SAUDICOMSAT 5           
1 31124U 07012H   26159.15818603  .00000648  00000+0  12001-3 0  9990
2 31124  98.3485 133.8545 0047960 152.5912 207.7837 14.68146172 22277
SAUDICOMSAT 3           
1 31125U 07012J   26158.18193285  .00000885  00000+0  15228-3 0  9992
2 31125  98.3138 133.4079 0040509  83.8456 276.7362 14.70688991 23354
SAUDICOMSAT 4           
1 31127U 07012L   26158.79442881  .00000614  00000+0  12266-3 0  9999
2 31127  98.3978 131.1735 0062120 288.2029  71.2417 14.64503017 19916
APRIZESAT 4             
1 35684U 09041D   26159.15375160  .00000697  00000+0  89716-4 0  9997
2 35684  98.1412 234.2942 0043044 352.7700   7.2888 14.83867536910024
APRIZESAT 3             
1 35686U 09041F   26159.00387988  .00001495  00000+0  13325-3 0  9993
2 35686  98.2054 311.7891 0062765  97.2528 263.5832 14.96215729915007
S-NET D                 
1 43186U 18014G   26158.69721507  .00006035  00000+0  31213-3 0  9991
2 43186  97.5366  63.5470 0009706  58.8150 301.4033 15.16583818457325
S-NET B                 
1 43187U 18014H   26158.97240561  .00005447  00000+0  28230-3 0  9990
2 43187  97.5372  63.8067 0010253  53.5740 306.6437 15.16556524457367
S-NET A                 
1 43188U 18014J   26158.69614310  .00006167  00000+0  31878-3 0  9999
2 43188  97.5380  63.7393 0010161  54.8789 305.3395 15.16591754457322
S-NET C                 
1 43189U 18014K   26158.71231015  .00005491  00000+0  28453-3 0  9994
2 43189  97.5397  63.8288 0011385  47.9234 312.2965 15.16546137455875
SALSAT                  
1 46495U 20068K   26158.98778249  .00008175  00000+0  28698-3 0  9996
2 46495  97.8853 161.4934 0008912 345.1768  14.9208 15.29667638313950
OOV-CUBE (TUBSAT-30)    
1 60240U 24128F   26159.00606000  .00002948  00000+0  23033-3 0  9990
2 60240  61.9951 257.5861 0045783 131.6812 228.8211 15.02735598104732
LPNTSAT-001 (IOD-1)     
1 68408U 26065A   26159.11494434  .00003202  00000+0  15797-3 0  9996
2 68408  97.4030  39.8162 0017571  40.9414 319.3136 15.18490906 10889
